{"type": "FeatureCollection", "features": [ {"type": "Feature", "properties": {"norad_id": 31411, "name": "FENGYUN 1C DEB", "group": "fengyun-1c-debris", "lat": -47.62108057481559, "lon": 71.00021311798056, "alt_km": 812.5275559569618, "timestamp": "2025-12-26T04:40:06.068843+00:00", "meta": {"OBJECT_NAME": "FENGYUN 1C DEB", "OBJECT_ID": "1999-025BSX", "EPOCH": "2025-12-21T10:37:47.232192", "MEAN_MOTION": 14.28010304, "ECCENTRICITY": 0.01009094, "INCLINATION": 98.668, "RA_OF_ASC_NODE": 56.6601, "ARG_OF_PERICENTER": 229.1813, "MEAN_ANOMALY": 147.9658, "EPHEMERIS_TYPE": 0, "CLASSIFICATION_TYPE": "U", "NORAD_CAT_ID": 31411, "ELEMENT_SET_NO": 999, "REV_AT_EPOCH": 94604, "BSTAR": 0.00039943349, "MEAN_MOTION_DOT": 1.002e-05, "MEAN_MOTION_DDOT": 0}, "tle": {"line1": "1 31411U 99025BSX 25355.44290778  .00001002  00000+0  39943-3 0  9999", "line2": "2 31411  98.6680  56.6601 0100909 229.1813 147.9658 14.28010304946044"}}, "geometry": {"type": "Point", "coordinates": [71.00021311798056, -47.62108057481559]}}, {"type": "Feature", "properties": {"norad_id": 31412, "name": "FENGYUN 1C DEB", "group": "fengyun-1c-debris", "lat": 45.49373395166995, "lon": 132.234233690547, "alt_km": 913.0531129784131, "timestamp": "2025-12-26T04:40:06.068853+00:00", "meta": {"OBJECT_NAME": "FENGYUN 1C DEB", "OBJECT_ID": "1999-025BSY", "EPOCH": "2025-12-25T14:24:19.497888", "MEAN_MOTION": 14.09916522, "ECCENTRICITY": 0.0082622, "INCLINATION": 98.552, "RA_OF_ASC_NODE": 302.8633, "ARG_OF_PERICENTER": 299.2185, "MEAN_ANOMALY": 60.0742, "EPHEMERIS_TYPE": 0, "CLASSIFICATION_TYPE": "U", "NORAD_CAT_ID": 31412, "ELEMENT_SET_NO": 999, "REV_AT_EPOCH": 61173, "BSTAR": 0.0017789, "MEAN_MOTION_DOT": 3.193e-05, "MEAN_MOTION_DDOT": 0}, "tle": {"line1": "1 31412U 99025BSY 25359.60022567  .00003193  00000+0  17789-2 0  9997", "line2": "2 31412  98.5520 302.8633 0082622 299.2185  60.0742 14.09916522611739"}}, "geometry": {"type": "Point", "coordinates": [132.234233690547, 45.49373395166995]}}, {"type": "Feature", "properties": {"norad_id": 31415, "name": "FENGYUN 1C DEB", "group": "fengyun-1c-debris", "lat": -79.74750974554003, "lon": 23.661272157604095, "alt_km": 821.4711772485389, "timestamp": "2025-12-26T04:40:06.068864+00:00", "meta": {"OBJECT_NAME": "FENGYUN 1C DEB", "OBJECT_ID": "1999-025BTB", "EPOCH": "2025-12-14T14:26:42.789696", "MEAN_MOTION": 14.30617484, "ECCENTRICITY": 0.00641277, "INCLINATION": 99.6387, "RA_OF_ASC_NODE": 300.8477, "ARG_OF_PERICENTER": 69.4394, "MEAN_ANOMALY": 291.365, "EPHEMERIS_TYPE": 0, "CLASSIFICATION_TYPE": "U", "NORAD_CAT_ID": 31415, "ELEMENT_SET_NO": 999, "REV_AT_EPOCH": 62857, "BSTAR": 0.0013058291, "MEAN_MOTION_DOT": 3.436e-05, "MEAN_MOTION_DDOT": 0}, "tle": {"line1": "1 31415U 99025BTB 25348.60188414  .00003436  00000+0  13058-2 0  9997", "line2": "2 31415  99.6387 300.8477 0064127  69.4394 291.3650 14.30617484628574"}}, "geometry": {"type": "Point", "coordinates": [23.661272157604095, -79.74750974554003]}}, {"type": "Feature", "properties": {"norad_id": 31416, "name": "FENGYUN 1C DEB", "group": "fengyun-1c-debris", "lat": 75.63987777808264, "lon": 12.699971130350995, "alt_km": 812.2724027585436, "timestamp": "2025-12-26T04:40:06.068874+00:00", "meta": {"OBJECT_NAME": "FENGYUN 1C DEB", "OBJECT_ID": "1999-025BTC", "EPOCH": "2025-12-22T23:37:14.702880", "MEAN_MOTION": 14.40692205, "ECCENTRICITY": 0.01332513, "INCLINATION": 99.0495, "RA_OF_ASC_NODE": 47.8051, "ARG_OF_PERICENTER": 220.592, "MEAN_ANOMALY": 138.5272, "EPHEMERIS_TYPE": 0, "CLASSIFICATION_TYPE": "U", "NORAD_CAT_ID": 31416, "ELEMENT_SET_NO": 999, "REV_AT_EPOCH": 65667, "BSTAR": 0.00026471718, "MEAN_MOTION_DOT": 8.84e-06, "MEAN_MOTION_DDOT": 0}, "tle": {"line1": "1 31416U 99025BTC 25356.98419795  .00000884  00000+0  26472-3 0  9996", "line2": "2 31416  99.0495  47.8051 0133251 220.5920 138.5272 14.40692205656674"}}, "geometry": {"type": "Point", "coordinates": [12.699971130350995, 75.63987777808264]}}, {"type": "Feature", "properties": {"norad_id": 31420, "name": "FENGYUN 1C DEB", "group": "fengyun-1c-debris", "lat": -68.44016701194643, "lon": -83.76878021535772, "alt_km": 666.8440799544887, "timestamp": "2025-12-26T04:40:06.068885+00:00", "meta": {"OBJECT_NAME": "FENGYUN 1C DEB", "OBJECT_ID": "1999-025BTG", "EPOCH": "2025-12-24T23:03:15.845184", "MEAN_MOTION": 14.40861261, "ECCENTRICITY": 0.01349187, "INCLINATION": 97.5586, "RA_OF_ASC_NODE": 255.5032, "ARG_OF_PERICENTER": 290.3751, "MEAN_ANOMALY": 83.1637, "EPHEMERIS_TYPE": 0, "CLASSIFICATION_TYPE": "U", "NORAD_CAT_ID": 31420, "ELEMENT_SET_NO": 999, "REV_AT_EPOCH": 65170, "BSTAR": 0.00064552807, "MEAN_MOTION_DOT": 2.264e-05, "MEAN_MOTION_DDOT": 0}, "tle": {"line1": "1 31420U 99025BTG 25358.96060006  .00002264  00000+0  64553-3 0  9994", "line2": "2 31420  97.5586 255.5032 0134918 290.3751  83.1637 14.40861261651707"}}, "geometry": {"type": "Point", "coordinates": [-83.76878021535772, -68.44016701194643]}}, {"type": "Feature", "properties": {"norad_id": 31422, "name": "FENGYUN 1C DEB", "group": "fengyun-1c-debris", "lat": 49.58224015300813, "lon": -172.7821894853702, "alt_km": 872.4385426776635, "timestamp": "2025-12-26T04:40:06.068895+00:00", "meta": {"OBJECT_NAME": "FENGYUN 1C DEB", "OBJECT_ID": "1999-025BTJ", "EPOCH": "2025-12-25T04:32:49.257600", "MEAN_MOTION": 14.09637595, "ECCENTRICITY": 0.00336758, "INCLINATION": 98.7605, "RA_OF_ASC_NODE": 355.8078, "ARG_OF_PERICENTER": 264.7622, "MEAN_ANOMALY": 167.559, "EPHEMERIS_TYPE": 0, "CLASSIFICATION_TYPE": "U", "NORAD_CAT_ID": 31422, "ELEMENT_SET_NO": 999, "REV_AT_EPOCH": 95837, "BSTAR": 0.00030191894, "MEAN_MOTION_DOT": 4.89e-06, "MEAN_MOTION_DDOT": 0}, "tle": {"line1": "1 31422U 99025BTJ 25359.18945900  .00000489  00000+0  30192-3 0  9995", "line2": "2 31422  98.7605 355.8078 0033675 264.7622 167.5590 14.09637595958372"}}, "geometry": {"type": "Point", "coordinates": [-172.7821894853702, 49.58224015300813]}}, {"type": "Feature", "properties": {"norad_id": 31423, "name": "FENGYUN 1C DEB", "group": "fengyun-1c-debris", "lat": 8.758585637256443, "lon": 162.00877014208814, "alt_km": 791.5919232660235, "timestamp": "2025-12-26T04:40:06.068905+00:00", "meta": {"OBJECT_NAME": "FENGYUN 1C DEB", "OBJECT_ID": "1999-025BTK", "EPOCH": "2025-12-25T16:03:20.256480", "MEAN_MOTION": 14.229799, "ECCENTRICITY": 0.00367635, "INCLINATION": 98.5847, "RA_OF_ASC_NODE": 340.1629, "ARG_OF_PERICENTER": 156.3859, "MEAN_ANOMALY": 203.9017, "EPHEMERIS_TYPE": 0, "CLASSIFICATION_TYPE": "U", "NORAD_CAT_ID": 31423, "ELEMENT_SET_NO": 999, "REV_AT_EPOCH": 97152, "BSTAR": 0.00014479863, "MEAN_MOTION_DOT": 2.86e-06, "MEAN_MOTION_DDOT": 0}, "tle": {"line1": "1 31423U 99025BTK 25359.66898445  .00000286  00000+0  14480-3 0  9997", "line2": "2 31423  98.5847 340.1629 0036763 156.3859 203.9017 14.22979900971522"}}, "geometry": {"type": "Point", "coordinates": [162.00877014208814, 8.758585637256443]}}, {"type": "Feature", "properties": {"norad_id": 31424, "name": "FENGYUN 1C DEB", "group": "fengyun-1c-debris", "lat": -57.4224358425985, "lon": 56.88739105325439, "alt_km": 911.5547594967175, "timestamp": "2025-12-26T04:40:06.068915+00:00", "meta": {"OBJECT_NAME": "FENGYUN 1C DEB", "OBJECT_ID": "1999-025BTL", "EPOCH": "2025-12-24T13:43:46.988832", "MEAN_MOTION": 14.08367875, "ECCENTRICITY": 0.009433, "INCLINATION": 98.4797, "RA_OF_ASC_NODE": 41.8604, "ARG_OF_PERICENTER": 72.0423, "MEAN_ANOMALY": 289.1003, "EPHEMERIS_TYPE": 0, "CLASSIFICATION_TYPE": "U", "NORAD_CAT_ID": 31424, "ELEMENT_SET_NO": 999, "REV_AT_EPOCH": 63337, "BSTAR": 0.00021357007, "MEAN_MOTION_DOT": 3.41e-06, "MEAN_MOTION_DDOT": 0}, "tle": {"line1": "1 31424U 99025BTL 25358.57207163  .00000341  00000+0  21357-3 0  9991", "line2": "2 31424  98.4797  41.8604 0094330  72.0423 289.1003 14.08367875633374"}}, "geometry": {"type": "Point", "coordinates": [56.88739105325439, -57.4224358425985]}}, {"type": "Feature", "properties": {"norad_id": 31426, "name": "FENGYUN 1C DEB", "group": "fengyun-1c-debris", "lat": -33.79425772691345, "lon": 162.59681943666212, "alt_km": 1170.6822735387568, "timestamp": "2025-12-26T04:40:06.068925+00:00", "meta": {"OBJECT_NAME": "FENGYUN 1C DEB", "OBJECT_ID": "1999-025BTN", "EPOCH": "2025-12-24T16:38:35.634336", "MEAN_MOTION": 13.9016565, "ECCENTRICITY": 0.03242634, "INCLINATION": 98.5802, "RA_OF_ASC_NODE": 155.4094, "ARG_OF_PERICENTER": 153.1493, "MEAN_ANOMALY": 224.4865, "EPHEMERIS_TYPE": 0, "CLASSIFICATION_TYPE": "U", "NORAD_CAT_ID": 31426, "ELEMENT_SET_NO": 999, "REV_AT_EPOCH": 93739, "BSTAR": 0.0020398597, "MEAN_MOTION_DOT": 3.82e-05, "MEAN_MOTION_DDOT": 0}, "tle": {"line1": "1 31426U 99025BTN 25358.69346799  .00003820  00000+0  20399-2 0  9994", "line2": "2 31426  98.5802 155.4094 0324263 153.1493 224.4865 13.90165650937392"}}, "geometry": {"type": "Point", "coordinates": [162.59681943666212, -33.79425772691345]}}, {"type": "Feature", "properties": {"norad_id": 31427, "name": "FENGYUN 1C DEB", "group": "fengyun-1c-debris", "lat": -16.569003911541955, "lon": 112.43812607123378, "alt_km": 679.6682519172928, "timestamp": "2025-12-26T04:40:06.068935+00:00", "meta": {"OBJECT_NAME": "FENGYUN 1C DEB", "OBJECT_ID": "1999-025BTP", "EPOCH": "2025-12-23T05:57:55.232352", "MEAN_MOTION": 14.58870278, "ECCENTRICITY": 0.00310487, "INCLINATION": 98.6704, "RA_OF_ASC_NODE": 106.7623, "ARG_OF_PERICENTER": 345.3085, "MEAN_ANOMALY": 14.7208, "EPHEMERIS_TYPE": 0, "CLASSIFICATION_TYPE": "U", "NORAD_CAT_ID": 31427, "ELEMENT_SET_NO": 999, "REV_AT_EPOCH": 97034, "BSTAR": 0.0023695532, "MEAN_MOTION_DOT": 0.00011132, "MEAN_MOTION_DDOT": 0}, "tle": {"line1": "1 31427U 99025BTP 25357.24855593  .00011132  00000+0  23696-2 0  9990", "line2": "2 31427  98.6704 106.7623 0031048 345.3085  14.7208 14.58870278970347"}}, "geometry": {"type": "Point", "coordinates": [112.43812607123378, -16.569003911541955]}}]}